OBJECT_NAME,OBJECT_ID,EPOCH,MEAN_MOTION,ECCENTRICITY,INCLINATION,RA_OF_ASC_NODE,ARG_OF_PERICENTER,MEAN_ANOMALY,EPHEMERIS_TYPE,CLASSIFICATION_TYPE,NORAD_CAT_ID,ELEMENT_SET_NO,REV_AT_EPOCH,BSTAR,MEAN_MOTION_DOT,MEAN_MOTION_DDOT
TIANMU-1 20,2023-208B,2026-06-06T14:49:23.112768,15.32604932,.00069817,97.4436,274.4900,14.0082,346.1352,0,U,58661,999,13580,.32391169E-3,.10129E-3,0
TIANMU-1 21,2023-208C,2026-06-06T14:55:22.162656,15.34887908,.00068292,97.4494,277.1294,6.4491,353.6839,0,U,58662,999,13594,.36003418E-3,.12114E-3,0
TIANMU-1 22,2023-208D,2026-06-06T14:45:54.085248,15.30909209,.00042015,97.4489,273.8081,39.0923,321.0620,0,U,58663,999,13571,.31996377E-3,.9483E-4,0
TIANMU-1 15,2024-004A,2026-06-06T14:43:38.587584,15.26913583,.00077209,97.4674,343.8028,37.6530,322.5248,0,U,58700,999,13416,.27734728E-3,.7262E-4,0
TIANMU-1 16,2024-004B,2026-06-06T14:25:24.037824,15.26640801,.00068107,97.4620,343.0390,42.2242,317.9520,0,U,58701,999,13416,.31550759E-3,.8203E-4,0
TIANMU-1 17,2024-004C,2026-06-06T15:38:49.989408,15.26640134,.00064821,97.4648,343.5710,47.4286,312.7499,0,U,58702,999,13416,.28862386E-3,.7497E-4,0
TIANMU-1 18,2024-004D,2026-06-06T15:07:23.691648,15.26898252,.00049775,97.4665,343.7979,46.9221,313.2433,0,U,58703,999,13416,.25562502E-3,.6681E-4,0
INSAT-3DS,2024-033A,2026-06-06T14:39:48.921696,1.00273537,.00013461,0.0063,272.1219,160.8985,124.0317,0,U,58990,999,4696,0,-.143E-5,0
METEOR-M2 4,2024-039A,2026-06-06T15:10:15.453984,14.22428471,.00066652,98.7006,117.0632,191.5164,168.5862,0,U,59051,999,11776,.3150158E-4,.26E-6,0
GOES 19,2024-119A,2026-06-06T13:06:56.157120,1.00270710,.00006656,0.0381,148.5192,349.9174,238.0706,0,U,60133,999,685,0,-.235E-5,0
MTG-S1,2025-143A,2026-06-06T08:19:19.865280,1.00271644,.00011207,0.6128,336.5439,35.0864,4.4932,0,U,64723,999,331,0,-.19E-6,0
METOP-SGA1,2025-172A,2026-06-06T10:33:22.748832,14.21508074,.00009695,98.6647,217.3633,87.3173,272.8115,0,U,65159,999,4226,.44813745E-4,.55E-6,0
FENGYUN 3H,2025-219A,2026-06-06T12:59:52.821312,14.19918605,.00016286,98.6765,98.5178,85.5755,274.5608,0,U,65815,999,3587,.54096839E-4,.72E-6,0
