TIANMU-1 20             
1 58661U 23208B   26157.61762862  .00010129  00000+0  32391-3 0  9993
2 58661  97.4436 274.4900 0006981  14.0082 346.1352 15.32604932135802
TIANMU-1 21             
1 58662U 23208C   26157.62178429  .00012114  00000+0  36003-3 0  9995
2 58662  97.4494 277.1294 0006829   6.4491 353.6839 15.34887908135949
TIANMU-1 22             
1 58663U 23208D   26157.61520932  .00009483  00000+0  31996-3 0  9996
2 58663  97.4489 273.8081 0004201  39.0923 321.0620 15.30909209135712
TIANMU-1 15             
1 58700U 24004A   26157.61364106  .00007262  00000+0  27735-3 0  9991
2 58700  97.4674 343.8028 0007720  37.6530 322.5248 15.26913583134161
TIANMU-1 16             
1 58701U 24004B   26157.60097266  .00008203  00000+0  31551-3 0  9998
2 58701  97.4620 343.0390 0006810  42.2242 317.9520 15.26640801134169
TIANMU-1 17             
1 58702U 24004C   26157.65196747  .00007497  00000+0  28862-3 0  9993
2 58702  97.4648 343.5710 0006482  47.4286 312.7499 15.26640134134168
TIANMU-1 18             
1 58703U 24004D   26157.63013532  .00006681  00000+0  25563-3 0  9991
2 58703  97.4665 343.7979 0004977  46.9221 313.2433 15.26898252134167
INSAT-3DS               
1 58990U 24033A   26157.61098289 -.00000143  00000+0  00000+0 0  9994
2 58990   0.0063 272.1219 0001346 160.8985 124.0317  1.00273537 46968
METEOR-M2 4             
1 59051U 24039A   26157.63212331  .00000026  00000+0  31502-4 0  9992
2 59051  98.7006 117.0632 0006665 191.5164 168.5862 14.22428471117765
GOES 19                 
1 60133U 24119A   26157.54648330 -.00000235  00000+0  00000+0 0  9993
2 60133   0.0381 148.5192 0000665 349.9174 238.0706  1.00270710  6854
MTG-S1                  
1 64723U 25143A   26157.34675770 -.00000019  00000+0  00000+0 0  9996
2 64723   0.6128 336.5439 0001120  35.0864   4.4932  1.00271644  3318
METOP-SGA1              
1 65159U 25172A   26157.43984663  .00000055  00000+0  44814-4 0  9991
2 65159  98.6647 217.3633 0000969  87.3173 272.8115 14.21508074 42268
FENGYUN 3H              
1 65815U 25219A   26157.54158358  .00000072  00000+0  54097-4 0  9991
2 65815  98.6765  98.5178 0001628  85.5755 274.5608 14.19918605 35877
